NORAD_CAT_ID,OBJECT_NAME,OBJECT_TYPE,EPOCH,MEAN_MOTION,ECCENTRICITY,INCLINATION,RA_OF_ASC_NODE,ARG_OF_PERICENTER,MEAN_ANOMALY,BSTAR,MEAN_MOTION_DOT,MEAN_MOTION_DDOT,TLE_LINE0,TLE_LINE1,TLE_LINE2,SEMIMAJOR_AXIS,PERIOD,APOGEE,PERIGEE,DECAYED
56471.0,STARLINK-5521,PAYLOAD,2023-06-20 21:01:36,15.69933806,0.0002539,69.999,129.6032,260.3882,99.7027,4.5704e-05,5.288e-05,0.0,0 STARLINK-5521,1 56471U 23064Z   23171.87611775  .00005288  00000-0  45704-4 0  9991,2 56471  69.9990 129.6032 0002539 260.3882  99.7027 15.69933806  6480,6737.223,91.724,360.799,357.378,0.0
56471.0,STARLINK-5521,PAYLOAD,2023-06-21 00:05:06,15.69918482,0.0003402,69.9997,129.2458,259.4294,100.6519,-1.8504e-06,-4.35e-06,0.0,0 STARLINK-5521,1 56471U 23064Z   23172.00355244 -.00000435  00000-0 -18504-5 0  9993,2 56471  69.9997 129.2458 0003402 259.4294 100.6519 15.69918482  6853,6737.267,91.725,361.424,356.84,0.0
56471.0,STARLINK-5521,PAYLOAD,2023-06-21 07:43:52,15.69927549,0.0003108,69.9997,128.3501,260.1422,99.9423,2.2245e-05,2.463e-05,0.0,0 STARLINK-5521,1 56471U 23064Z   23172.32213485  .00002463  00000-0  22245-4 0  9995,2 56471  69.9997 128.3501 0003108 260.1422  99.9423 15.69927549  6552,6737.241,91.724,361.2,357.012,0.0
56471.0,STARLINK-5521,PAYLOAD,2023-06-22 08:11:54,15.69922682,0.0003194,69.9983,125.483,261.1915,98.8919,1.4791e-05,1.566e-05,0.0,0 STARLINK-5521,1 56471U 23064Z   23173.34160453  .00001566  00000-0  14791-4 0  9994,2 56471  69.9983 125.4830 0003194 261.1915  98.8919 15.69922682  7061,6737.255,91.724,361.272,356.968,0.0
56471.0,STARLINK-5521,PAYLOAD,2023-06-22 14:18:54,15.69933646,0.000345,69.9984,124.7669,263.1868,96.8935,1.9565e-05,2.141e-05,0.0,0 STARLINK-5521,1 56471U 23064Z   23173.59646486  .00002141  00000-0  19565-4 0  9990,2 56471  69.9984 124.7669 0003450 263.1868  96.8935 15.69933646  7101,6737.224,91.724,361.413,356.764,0.0
56471.0,STARLINK-5521,PAYLOAD,2023-06-22 23:29:25,15.69923002,0.0003536,69.9995,123.6938,260.8677,99.2119,2.6973e-05,3.032e-05,0.0,0 STARLINK-5521,1 56471U 23064Z   23173.97877098  .00003032  00000-0  26973-4 0  9998,2 56471  69.9995 123.6938 0003536 260.8677  99.2119 15.69923002  7169,6737.254,91.724,361.502,356.737,0.0
56471.0,STARLINK-5521,PAYLOAD,2023-06-23 07:08:11,15.69918279,0.0002992,69.9997,122.7971,258.5978,101.4882,2.3348e-06,6.8e-07,0.0,0 STARLINK-5521,1 56471U 23064Z   23174.29735699  .00000068  00000-0  23348-5 0  9994,2 56471  69.9997 122.7971 0002992 258.5978 101.4882 15.69918279  7210,6737.268,91.725,361.149,357.117,0.0
56471.0,STARLINK-5521,PAYLOAD,2023-06-24 03:00:57,15.69934474,0.000357,69.9981,120.4669,263.2595,96.8195,3.4463e-05,3.935e-05,0.0,0 STARLINK-5521,1 56471U 23064Z   23175.12566671  .00003935  00000-0  34463-4 0  9994,2 56471  69.9981 120.4669 0003570 263.2595  96.8195 15.69934474  7346,6737.221,91.724,361.492,356.681,0.0
56471.0,STARLINK-5521,PAYLOAD,2023-06-24 06:04:28,15.69920763,0.0003357,69.9981,120.1068,264.9404,95.1408,-2.7612e-06,-5.45e-06,0.0,0 STARLINK-5521,1 56471U 23064Z   23175.25310376 -.00000545  00000-0 -27612-5 0  9992,2 56471  69.9981 120.1068 0003357 264.9404  95.1408 15.69920763  7363,6737.261,91.724,361.387,356.864,0.0
56471.0,STARLINK-5521,PAYLOAD,2023-06-25 06:32:29,15.69940428,0.00039,69.9997,117.2447,267.2245,92.8505,5.7389e-05,6.698e-05,0.0,0 STARLINK-5521,1 56471U 23064Z   23176.27256553  .00006698  00000-0  57389-4 0  9997,2 56471  69.9997 117.2447 0003900 267.2245  92.8505 15.69940428  7521,6737.204,91.723,361.697,356.442,0.0
56471.0,STARLINK-5521,PAYLOAD,2023-06-26 02:25:17,15.69918751,0.0003666,69.998,114.9126,260.339,99.7391,-9.1129e-06,-1.308e-05,0.0,0 STARLINK-5521,1 56471U 23064Z   23177.10089384 -.00001308  00000-0 -91129-5 0  9992,2 56471  69.9980 114.9126 0003666 260.3390  99.7391 15.69918751  7652,6737.266,91.724,361.601,356.662,0.0
56471.0,STARLINK-5521,PAYLOAD,2023-06-26 05:28:47,15.69929094,0.0003628,69.9985,114.5564,259.6387,100.44,1.4318e-05,1.509e-05,0.0,0 STARLINK-5521,1 56471U 23064Z   23177.22832341  .00001509  00000-0  14318-4 0  9999,2 56471  69.9985 114.5564 0003628 259.6387 100.4400 15.69929094  7679,6737.237,91.724,361.546,356.658,0.0
56471.0,STARLINK-5521,PAYLOAD,2023-06-26 20:46:18,15.69924191,0.000367,69.9994,112.7648,260.325,99.7531,2.4121e-05,2.689e-05,0.0,0 STARLINK-5521,1 56471U 23064Z   23177.86549224  .00002689  00000-0  24121-4 0  9997,2 56471  69.9994 112.7648 0003670 260.3250  99.7531 15.69924191  7776,6737.251,91.724,361.588,356.643,0.0
56471.0,STARLINK-5521,PAYLOAD,2023-06-28 04:53:06,15.69925008,0.0003529,69.9987,109.0022,262.6061,97.4734,2.0106e-05,2.206e-05,0.0,0 STARLINK-5521,1 56471U 23064Z   23179.20354288  .00002206  00000-0  20106-4 0  9995,2 56471  69.9987 109.0022 0003529 262.6061  97.4734 15.69925008  7982,6737.249,91.724,361.491,356.736,0.0
56471.0,STARLINK-5521,PAYLOAD,2023-06-29 05:21:08,15.69912008,0.0003561,69.9993,106.1348,264.51,95.569,-2.5051e-05,-3.222e-05,0.0,0 STARLINK-5521,1 56471U 23064Z   23180.22301264 -.00003222  00000-0 -25051-4 0  9990,2 56471  69.9993 106.1348 0003561 264.5100  95.5690 15.69912008  8144,6737.286,91.725,361.55,356.752,0.0
56471.0,STARLINK-5521,PAYLOAD,2023-06-30 11:56:10,15.69941961,0.0003184,69.9984,102.5535,262.7555,97.3279,5.5731e-05,6.498e-05,0.0,0 STARLINK-5521,1 56471U 23064Z   23181.49734268  .00006498  00000-0  55731-4 0  9998,2 56471  69.9984 102.5535 0003184 262.7555  97.3279 15.69941961  8342,6737.2,91.723,361.21,356.92,0.0
56471.0,STARLINK-5521,PAYLOAD,2023-06-30 22:38:26,15.69934091,0.0003262,69.9986,101.2974,264.1885,95.8939,1.6538e-05,1.777e-05,0.0,0 STARLINK-5521,1 56471U 23064Z   23181.94335910  .00001777  00000-0  16538-4 0  9996,2 56471  69.9986 101.2974 0003262 264.1885  95.8939 15.69934091  8416,6737.223,91.724,361.285,356.89,0.0
56471.0,STARLINK-5521,PAYLOAD,2023-07-01 04:45:27,15.69917445,0.0002875,69.9964,100.5794,291.2735,68.8153,-5.4571e-06,-8.68e-06,0.0,0 STARLINK-5521,1 56471U 23064Z   23182.19823990 -.00000868  00000-0 -54571-5 0  9996,2 56471  69.9964 100.5794 0002875 291.2735  68.8153 15.69917445  8454,6737.27,91.725,361.072,357.198,0.0
56471.0,STARLINK-5521,PAYLOAD,2023-07-02 02:09:58,15.69929198,0.0003492,69.9969,98.0742,266.7983,93.2813,1.1873e-05,1.215e-05,0.0,0 STARLINK-5521,1 56471U 23064Z   23183.09026571  .00001215  00000-0  11873-4 0  9998,2 56471  69.9969  98.0742 0003492 266.7983  93.2813 15.69929198  8599,6737.237,91.724,361.454,356.749,0.0
56471.0,STARLINK-5521,PAYLOAD,2023-07-03 11:48:31,15.69915725,0.0003316,69.9961,94.1338,272.1766,87.9049,2.3849e-05,2.655e-05,0.0,0 STARLINK-5521,1 56471U 23064Z   23184.49203692  .00002655  00000-0  23849-4 0  9999,2 56471  69.9961  94.1338 0003316 272.1766  87.9049 15.69915725  8811,6737.275,91.725,361.374,356.906,0.0
56471.0,STARLINK-5521,PAYLOAD,2023-07-04 03:06:02,15.69931414,0.0003418,69.9973,92.342,267.0635,93.0169,3.835e-06,2.48e-06,0.0,0 STARLINK-5521,1 56471U 23064Z   23185.12919654  .00000248  00000-0  38350-5 0  9992,2 56471  69.9973  92.3420 0003418 267.0635  93.0169 15.69931414  8912,6737.23,91.724,361.398,356.792,0.0
56471.0,STARLINK-5521,PAYLOAD,2023-07-04 16:51:49,15.69924067,0.0003311,69.9973,90.7301,271.9933,88.0884,9.9449e-06,9.83e-06,0.0,0 STARLINK-5521,1 56471U 23064Z   23185.70265189  .00000983  00000-0  99449-5 0  9995,2 56471  69.9973  90.7301 0003311 271.9933  88.0884 15.69924067  9004,6737.251,91.724,361.347,356.886,0.0
56471.0,STARLINK-5521,PAYLOAD,2023-07-05 03:34:05,15.69919837,0.0003421,69.9961,89.4748,266.1602,93.9202,-7.756e-07,-3.06e-06,0.0,0 STARLINK-5521,1 56471U 23064Z   23186.14867208 -.00000306  00000-0 -77560-6 0  9996,2 56471  69.9961  89.4748 0003421 266.1602  93.9202 15.69919837  9077,6737.263,91.724,361.433,356.824,0.0
56471.0,STARLINK-5521,PAYLOAD,2023-07-06 02:30:21,15.69933427,0.0003724,69.9966,86.787,263.8132,96.2639,1.0637e-05,1.067e-05,0.0,0 STARLINK-5521,1 56471U 23064Z   23187.10441309  .00001067  00000-0  10637-4 0  9996,2 56471  69.9966  86.7870 0003724 263.8132  96.2639 15.69933427  9224,6737.224,91.724,361.598,356.581,0.0
56471.0,STARLINK-5521,PAYLOAD,2023-07-07 02:58:23,15.69929553,0.0003805,69.9971,83.9212,266.109,93.967,1.6919e-05,1.822e-05,0.0,0 STARLINK-5521,1 56471U 23064Z   23188.12388173  .00001822  00000-0  16919-4 0  9996,2 56471  69.9971  83.9212 0003805 266.1090  93.9670 15.69929553  9389,6737.236,91.724,361.664,356.537,0.0
56471.0,STARLINK-5521,PAYLOAD,2023-07-07 18:15:55,15.69919816,0.000363,69.9983,82.1297,265.4456,94.6325,5.2557e-06,4.19e-06,0.0,0 STARLINK-5521,1 56471U 23064Z   23188.76105811  .00000419  00000-0  52557-5 0  9992,2 56471  69.9983  82.1297 0003630 265.4456  94.6325 15.69919816  9487,6737.263,91.724,361.574,356.683,0.0
56471.0,STARLINK-5521,PAYLOAD,2023-07-08 03:26:26,15.69890525,0.0002819,69.9985,81.0555,271.6872,88.4001,8.6616e-05,0.000102,0.0,0 STARLINK-5521,1 56471U 23064Z   23189.14336730  .00010200  00000-0  86616-4 0  9992,2 56471  69.9985  81.0555 0002819 271.6872  88.4001 15.69890525  9547,6737.347,91.726,361.111,357.313,0.0
56471.0,STARLINK-5521,PAYLOAD,2023-07-08 18:43:57,15.69919913,0.0003502,69.998,79.2637,266.4119,93.6677,-2.3061e-06,-4.9e-06,0.0,0 STARLINK-5521,1 56471U 23064Z   23189.78052662 -.00000490  00000-0 -23061-5 0  9999,2 56471  69.9980  79.2637 0003502 266.4119  93.6677 15.69919913  9649,6737.263,91.724,361.488,356.769,0.0
56471.0,STARLINK-5521,PAYLOAD,2023-07-09 02:22:42,15.69930371,0.0003414,69.9987,78.3681,265.0054,95.0752,9.4093e-06,9.19e-06,0.0,0 STARLINK-5521,1 56471U 23064Z   23190.09910186  .00000919  00000-0  94093-5 0  9996,2 56471  69.9987  78.3681 0003414 265.0054  95.0752 15.69930371  9696,6737.233,91.724,361.398,356.798,0.0
56471.0,STARLINK-5521,PAYLOAD,2023-07-09 10:01:28,15.69923888,0.0003035,69.9998,77.4722,271.5694,88.5154,1.4331e-05,1.511e-05,0.0,0 STARLINK-5521,1 56471U 23064Z   23190.41768968  .00001511  00000-0  14331-4 0  9996,2 56471  69.9998  77.4722 0003035 271.5694  88.5154 15.69923888  9749,6737.252,91.724,361.162,357.072,0.0
